BEIDOU-2 M4             
1 38251U 12018B   26157.38180917 -.00000054  00000+0  00000+0 0  9997
2 38251  55.6678 304.4539 0011100 277.6909  82.1732  1.86229774 95743
ARIRANG-3 (KOMPSAT-3)   
1 38338U 12025B   26157.83651962  .00000502  00000+0  10896-3 0  9999
2 38338  98.1172 115.4755 0006204 136.1013 224.0683 14.62197227749837
METOP-B                 
1 38771U 12049A   26157.84209095  .00000103  00000+0  66761-4 0  9993
2 38771  98.6508 209.5472 0002823  43.4880 316.6519 14.21429911711795
SJ-9A                   
1 38860U 12056A   26157.79096612  .00001191  00000+0  14359-3 0  9996
2 38860  97.6702 130.1191 0024081 293.1978  66.6702 14.85453694698041
COSMOS 2484 (RODNIK-S 6)
1 39059U 13001C   26157.84290088  .00000068  00000+0  41584-3 0  9999
2 39059  82.5019 228.3232 0027248  58.6144 301.7596 12.42938995607271
SARAL                   
1 39086U 13009A   26157.84562398  .00000086  00000+0  47644-4 0  9997
2 39086  98.5558 344.5441 0001295 356.8722   3.2453 14.32853400694122
STRAND-1                
1 39090U 13009E   26157.75196470  .00000310  00000+0  11872-3 0  9999
2 39090  98.3920 338.2434 0007401 261.0768  98.9581 14.37157162695561
BRITE-AUSTRIA           
1 39091U 13009F   26157.76034058  .00000191  00000+0  79724-4 0  9992
2 39091  98.3993 337.4545 0008955 271.7200  88.2961 14.36537975695556
GAOFEN-1                
1 39150U 13018A   26157.83013111  .00000118  00000+0  24200-4 0  9991
2 39150  97.9091 230.1081 0015956 303.0238  56.9438 14.76524852706715
NEE-01 PEGASO           
1 39151U 13018B   26157.61390502  .00004027  00000+0  38676-3 0  9994
2 39151  98.1214 301.4159 0012357 192.5106 167.5808 14.93609178709123
PROBA-V                 
1 39159U 13021A   26157.64671764  .00000091  00000+0  58067-4 0  9995
2 39159  98.3579 136.7740 0004643 149.0860 211.0594 14.23594764679619
ARIRANG-5 (KOMPSAT-5)   
1 39227U 13042A   26157.85718436  .00002378  00000+0  17396-3 0  9994
2 39227  97.6211 344.7026 0004013 147.9449 212.2022 15.04553039702301
GONETS-M 5              
1 39249U 13048A   26157.89181424 -.00000024  00000+0 -24087-3 0  9992
2 39249  82.4832 349.8021 0015729 234.2376 125.7241 12.42891339577603
GONETS-M 7              
1 39251U 13048C   26157.85496003 -.00000054  00000+0 -45889-3 0  9999
2 39251  82.4900 352.7421 0016531 235.6287 124.3230 12.42914065577556
FENGYUN 3C              
1 39260U 13052A   26157.79614829  .00000095  00000+0  69155-4 0  9991
2 39260  98.4974 132.1484 0015691  55.9344 304.3318 14.15752739657091
CASSIOPE                
1 39265U 13055A   26157.72753830  .00048289 -46050-6  53350-3 0  9997
2 39265  80.9143  79.4125 0296306  97.5089 265.9907 15.24250739666075
APRIZESAT 7             
1 39416U 13066A   26157.15188332  .00001540  00000+0  15777-3 0  9990
2 39416  97.7702 110.5307 0034355 247.0865 112.6726 14.91541126679580
ZACUBE-1 (TSHEPISOSAT)  
1 39417U 13066B   26157.67555399  .00004996  00000+0  38849-3 0  9992
2 39417  97.8101 119.9558 0039963 284.7807  74.8990 15.01121821679153
APRIZESAT 8             
1 39425U 13066K   26157.64864722  .00001252  00000+0  14140-3 0  9991
2 39425  97.8217 105.2639 0044969 322.2435  37.5629 14.87632138678105
TRITON-1                
1 39427U 13066M   26157.82815426  .00002316  00000+0  28204-3 0  9998
2 39427  97.8250  67.8709 0088372 268.1877  90.9213 14.81667628672550
